start=new Date('2023-04-13T00:00:00.000Z').valueOf();
sats=[{"EPHEMERIS_TYPE":"0","COUNTRY_CODE":"US","FILE":"3886349","PERIAPSIS":"538.577","CENTER_NAME":"EARTH","PERIOD":"95.437","RA_OF_ASC_NODE":"222.4576","REF_FRAME":"TEME","SITE":"AFWTR","SEMIMAJOR_AXIS":"6917.862","GP_ID":"229983684","OBJECT_NAME":"STARLINK-3836","OBJECT_ID":"2022-051AT","NORAD_CAT_ID":"52577","MEAN_MOTION":"15.08845910","CLASSIFICATION_TYPE":"U","RCS_SIZE":"LARGE","LAUNCH_DATE":"2022-05-13","ARG_OF_PERICENTER":"114.9018","TLE_LINE1":"1 52577U 22051AT  23102.50407727 -.00001613  00000-0 -83253-4 0  9994","MEAN_MOTION_DOT":"-0.00001613","APOAPSIS":"540.878","TIME_SYSTEM":"UTC","EPOCH":"2023-04-12T12:05:52.276128","REV_AT_EPOCH":"5102","DECAY_DATE":null,"ECCENTRICITY":"0.00016630","MEAN_MOTION_DDOT":"0.0000000000000","TLE_LINE2":"2 52577  53.2194 222.4576 0001663 114.9018 245.2147 15.08845910 51024","BSTAR":"-0.00008325300000","ELEMENT_SET_NO":"999","OBJECT_TYPE":"PAYLOAD","MEAN_ELEMENT_THEORY":"SGP4","INCLINATION":"53.2194","MEAN_ANOMALY":"245.2147"},{"EPHEMERIS_TYPE":"0","COUNTRY_CODE":"US","PERIAPSIS":"538.609","FILE":"3886349","REF_FRAME":"TEME","PERIOD":"95.438","RA_OF_ASC_NODE":"222.4412","CENTER_NAME":"EARTH","SEMIMAJOR_AXIS":"6917.880","SITE":"AFWTR","GP_ID":"229982449","OBJECT_NAME":"STARLINK-3833","OBJECT_ID":"2022-051AU","NORAD_CAT_ID":"52578","MEAN_MOTION":"15.08840262","RCS_SIZE":"LARGE","CLASSIFICATION_TYPE":"U","ARG_OF_PERICENTER":"101.2086","LAUNCH_DATE":"2022-05-13","TLE_LINE1":"1 52578U 22051AU  23102.50775488 -.00000792  00000-0 -31681-4 0  9992","MEAN_MOTION_DOT":"-0.00000792","APOAPSIS":"540.881","TIME_SYSTEM":"UTC","REV_AT_EPOCH":"5102","EPOCH":"2023-04-12T12:11:10.021632","DECAY_DATE":null,"ECCENTRICITY":"0.00016420","MEAN_MOTION_DDOT":"0.0000000000000","BSTAR":"-0.00003168100000","TLE_LINE2":"2 52578  53.2172 222.4412 0001642 101.2086 258.9090 15.08840262 51024","ELEMENT_SET_NO":"999","MEAN_ELEMENT_THEORY":"SGP4","OBJECT_TYPE":"PAYLOAD","INCLINATION":"53.2172","MEAN_ANOMALY":"258.9090"},{"ARG_OF_PERICENTER":"86.6154","LAUNCH_DATE":"2022-05-13","TLE_LINE1":"1 52579U 22051AV  23102.49673259  .00030038  00000-0  18953-2 0  9993","MEAN_MOTION_DOT":"0.00030038","APOAPSIS":"540.101","TIME_SYSTEM":"UTC","REV_AT_EPOCH":"5102","EPOCH":"2023-04-12T11:55:17.695776","DECAY_DATE":null,"MEAN_MOTION_DDOT":"0.0000000000000","ECCENTRICITY":"0.00006900","BSTAR":"0.00189530000000","TLE_LINE2":"2 52579  53.2142 222.4890 0000690  86.6154 273.4917 15.08879795 51029","ELEMENT_SET_NO":"999","MEAN_ELEMENT_THEORY":"SGP4","OBJECT_TYPE":"PAYLOAD","INCLINATION":"53.2142","MEAN_ANOMALY":"273.4917","EPHEMERIS_TYPE":"0","COUNTRY_CODE":"US","PERIAPSIS":"539.146","FILE":"3886349","REF_FRAME":"TEME","PERIOD":"95.435","RA_OF_ASC_NODE":"222.4890","CENTER_NAME":"EARTH","SEMIMAJOR_AXIS":"6917.759","SITE":"AFWTR","GP_ID":"229982698","OBJECT_NAME":"STARLINK-3893","OBJECT_ID":"2022-051AV","NORAD_CAT_ID":"52579","MEAN_MOTION":"15.08879795","CLASSIFICATION_TYPE":"U","RCS_SIZE":"LARGE"},{"OBJECT_TYPE":"PAYLOAD","MEAN_ELEMENT_THEORY":"SGP4","ELEMENT_SET_NO":"999","TLE_LINE2":"2 52580  53.2183 222.4763 0001689 108.8764 251.2412 15.08840770 51023","BSTAR":"-0.00000107980000","MEAN_ANOMALY":"251.2412","INCLINATION":"53.2183","TIME_SYSTEM":"UTC","APOAPSIS":"540.911","MEAN_MOTION_DOT":"-0.00000305","TLE_LINE1":"1 52580U 22051AW  23102.50135192 -.00000305  00000-0 -10798-5 0  9994","LAUNCH_DATE":"2022-05-13","ARG_OF_PERICENTER":"108.8764","ECCENTRICITY":"0.00016890","MEAN_MOTION_DDOT":"0.0000000000000","DECAY_DATE":null,"EPOCH":"2023-04-12T12:01:56.805888","REV_AT_EPOCH":"5102","NORAD_CAT_ID":"52580","OBJECT_ID":"2022-051AW","OBJECT_NAME":"STARLINK-3919","RCS_SIZE":"LARGE","CLASSIFICATION_TYPE":"U","MEAN_MOTION":"15.08840770","FILE":"3886349","PERIAPSIS":"538.575","COUNTRY_CODE":"US","EPHEMERIS_TYPE":"0","GP_ID":"229982946","SITE":"AFWTR","SEMIMAJOR_AXIS":"6917.878","CENTER_NAME":"EARTH","RA_OF_ASC_NODE":"222.4763","PERIOD":"95.438","REF_FRAME":"TEME"},{"LAUNCH_DATE":"2022-05-13","ARG_OF_PERICENTER":"101.3490","TLE_LINE1":"1 52581U 22051AX  23102.58089044  .00011213  00000-0  72138-3 0  9999","MEAN_MOTION_DOT":"0.00011213","APOAPSIS":"540.316","TIME_SYSTEM":"UTC","EPOCH":"2023-04-12T13:56:28.934016","REV_AT_EPOCH":"5124","DECAY_DATE":null,"MEAN_MOTION_DDOT":"0.0000000000000","ECCENTRICITY":"0.00008500","TLE_LINE2":"2 52581  53.2156 207.1136 0000850 101.3490 258.7597 15.08845676 51241","BSTAR":"0.00072138000000","ELEMENT_SET_NO":"999","OBJECT_TYPE":"PAYLOAD","MEAN_ELEMENT_THEORY":"SGP4","INCLINATION":"53.2156","MEAN_ANOMALY":"258.7597","EPHEMERIS_TYPE":"0","COUNTRY_CODE":"US","PERIAPSIS":"539.140","FILE":"3886349","CENTER_NAME":"EARTH","REF_FRAME":"TEME","PERIOD":"95.437","RA_OF_ASC_NODE":"207.1136","SITE":"AFWTR","SEMIMAJOR_AXIS":"6917.863","GP_ID":"229983184","OBJECT_NAME":"STARLINK-3915","OBJECT_ID":"2022-051AX","NORAD_CAT_ID":"52581","MEAN_MOTION":"15.08845676","CLASSIFICATION_TYPE":"U","RCS_SIZE":"LARGE"},{"GP_ID":"229981949","RA_OF_ASC_NODE":"207.0807","PERIOD":"95.437","REF_FRAME":"TEME","CENTER_NAME":"EARTH","SEMIMAJOR_AXIS":"6917.874","SITE":"AFWTR","PERIAPSIS":"539.102","FILE":"3886349","EPHEMERIS_TYPE":"0","COUNTRY_CODE":"US","CLASSIFICATION_TYPE":"U","RCS_SIZE":"LARGE","MEAN_MOTION":"15.08841991","NORAD_CAT_ID":"52582","OBJECT_NAME":"STARLINK-3886","OBJECT_ID":"2022-051AY","ECCENTRICITY":"0.00009210","MEAN_MOTION_DDOT":"0.0000000000000","REV_AT_EPOCH":"5124","EPOCH":"2023-04-12T14:07:05.165472","DECAY_DATE":null,"APOAPSIS":"540.376","MEAN_MOTION_DOT":"0.00000165","TIME_SYSTEM":"UTC","ARG_OF_PERICENTER":"94.9938","LAUNCH_DATE":"2022-05-13","TLE_LINE1":"1 52582U 22051AY  23102.58825423  .00000165  00000-0  28428-4 0  9997","MEAN_ANOMALY":"265.1159","INCLINATION":"53.2150","ELEMENT_SET_NO":"999","MEAN_ELEMENT_THEORY":"SGP4","OBJECT_TYPE":"PAYLOAD","BSTAR":"0.00002842800000","TLE_LINE2":"2 52582  53.2150 207.0807 0000921  94.9938 265.1159 15.08841991 51245"},{"RCS_SIZE":"LARGE","CLASSIFICATION_TYPE":"U","MEAN_MOTION":"15.08836359","NORAD_CAT_ID":"52583","OBJECT_NAME":"STARLINK-3895","OBJECT_ID":"2022-051AZ","GP_ID":"229982199","PERIOD":"95.438","REF_FRAME":"TEME","RA_OF_ASC_NODE":"207.1299","CENTER_NAME":"EARTH","SEMIMAJOR_AXIS":"6917.892","SITE":"AFWTR","PERIAPSIS":"538.890","FILE":"3886349","EPHEMERIS_TYPE":"0","COUNTRY_CODE":"US","MEAN_ANOMALY":"278.9620","INCLINATION":"53.2172","ELEMENT_SET_NO":"999","MEAN_ELEMENT_THEORY":"SGP4","OBJECT_TYPE":"PAYLOAD","BSTAR":"0.00007964900000","TLE_LINE2":"2 52583  53.2172 207.1299 0001252  81.1514 278.9620 15.08836359 51249","ECCENTRICITY":"0.00012520","MEAN_MOTION_DDOT":"0.0000000000000","REV_AT_EPOCH":"5124","EPOCH":"2023-04-12T13:51:11.778624","DECAY_DATE":null,"MEAN_MOTION_DOT":"0.00000980","APOAPSIS":"540.623","TIME_SYSTEM":"UTC","ARG_OF_PERICENTER":"81.1514","LAUNCH_DATE":"2022-05-13","TLE_LINE1":"1 52583U 22051AZ  23102.57721966  .00000980  00000-0  79649-4 0  9990"},{"FILE":"3886326","PERIAPSIS":"538.924","COUNTRY_CODE":"US","EPHEMERIS_TYPE":"0","GP_ID":"229958757","SEMIMAJOR_AXIS":"6917.871","SITE":"AFWTR","PERIOD":"95.437","REF_FRAME":"TEME","RA_OF_ASC_NODE":"207.0976","CENTER_NAME":"EARTH","NORAD_CAT_ID":"52584","OBJECT_ID":"2022-051BA","OBJECT_NAME":"STARLINK-3922","RCS_SIZE":"LARGE","CLASSIFICATION_TYPE":"U","MEAN_MOTION":"15.08843034","TIME_SYSTEM":"UTC","MEAN_MOTION_DOT":"0.00000477","APOAPSIS":"540.548","TLE_LINE1":"1 52584U 22051BA  23102.58456911  .00000477  00000-0  48029-4 0  9996","ARG_OF_PERICENTER":"100.1986","LAUNCH_DATE":"2022-05-13","MEAN_MOTION_DDOT":"0.0000000000000","ECCENTRICITY":"0.00011740","DECAY_DATE":null,"REV_AT_EPOCH":"5131","EPOCH":"2023-04-12T14:01:46.771104","MEAN_ELEMENT_THEORY":"SGP4","OBJECT_TYPE":"PAYLOAD","ELEMENT_SET_NO":"999","BSTAR":"0.00004802900000","TLE_LINE2":"2 52584  53.2144 207.0976 0001174 100.1986 259.9139 15.08843034 51318","MEAN_ANOMALY":"259.9139","INCLINATION":"53.2144"},{"ECCENTRICITY":"0.00011880","MEAN_MOTION_DDOT":"0.0000000000000","DECAY_DATE":null,"EPOCH":"2023-04-12T13:41:58.835040","REV_AT_EPOCH":"5131","TIME_SYSTEM":"UTC","APOAPSIS":"540.564","MEAN_MOTION_DOT":"-0.00001917","TLE_LINE1":"1 52585U 22051BB  23102.57081985 -.00001917  00000-0 -10241-3 0  9997","LAUNCH_DATE":"2022-05-13","ARG_OF_PERICENTER":"83.1371","MEAN_ANOMALY":"276.9756","INCLINATION":"53.2190","OBJECT_TYPE":"PAYLOAD","MEAN_ELEMENT_THEORY":"SGP4","ELEMENT_SET_NO":"999","TLE_LINE2":"2 52585  53.2190 207.1704 0001188  83.1371 276.9756 15.08841201 51311","BSTAR":"-0.00010241000000","GP_ID":"229958481","SITE":"AFWTR","SEMIMAJOR_AXIS":"6917.877","CENTER_NAME":"EARTH","RA_OF_ASC_NODE":"207.1704","PERIOD":"95.437","REF_FRAME":"TEME","PERIAPSIS":"538.920","FILE":"3886326","COUNTRY_CODE":"US","EPHEMERIS_TYPE":"0","RCS_SIZE":"LARGE","CLASSIFICATION_TYPE":"U","MEAN_MOTION":"15.08841201","NORAD_CAT_ID":"52585","OBJECT_ID":"2022-051BB","OBJECT_NAME":"STARLINK-3906"},{"MEAN_MOTION":"15.08844825","RCS_SIZE":"LARGE","CLASSIFICATION_TYPE":"U","OBJECT_NAME":"STARLINK-3910","OBJECT_ID":"2022-051BC","NORAD_CAT_ID":"52586","CENTER_NAME":"EARTH","RA_OF_ASC_NODE":"207.1432","PERIOD":"95.437","REF_FRAME":"TEME","SITE":"AFWTR","SEMIMAJOR_AXIS":"6917.866","GP_ID":"229958485","EPHEMERIS_TYPE":"0","COUNTRY_CODE":"US","FILE":"3886326","PERIAPSIS":"538.892","INCLINATION":"53.2147","MEAN_ANOMALY":"274.1782","TLE_LINE2":"2 52586  53.2147 207.1432 0001213  85.9349 274.1782 15.08844825 51310","BSTAR":"-0.00000281630000","ELEMENT_SET_NO":"999","OBJECT_TYPE":"PAYLOAD","MEAN_ELEMENT_THEORY":"SGP4","EPOCH":"2023-04-12T13:45:53.353152","REV_AT_EPOCH":"5131","DECAY_DATE":null,"MEAN_MOTION_DDOT":"0.0000000000000","ECCENTRICITY":"0.00012130","LAUNCH_DATE":"2022-05-13","ARG_OF_PERICENTER":"85.9349","TLE_LINE1":"1 52586U 22051BC  23102.57353418 -.00000333  00000-0 -28163-5 0  9996","APOAPSIS":"540.570","MEAN_MOTION_DOT":"-0.00000333","TIME_SYSTEM":"UTC"}];
